NORAD_CAT_ID,OBJECT_NAME,OBJECT_TYPE,EPOCH,MEAN_MOTION,ECCENTRICITY,INCLINATION,RA_OF_ASC_NODE,ARG_OF_PERICENTER,MEAN_ANOMALY,BSTAR,MEAN_MOTION_DOT,MEAN_MOTION_DDOT,TLE_LINE0,TLE_LINE1,TLE_LINE2,SEMIMAJOR_AXIS,PERIOD,APOGEE,PERIGEE,DECAYED
52283.0,STARLINK-3789,PAYLOAD,2022-11-23 19:18:04,15.08835079,0.0002013,53.2181,104.6088,44.6967,315.4187,-1.9677e-05,-6.01e-06,0.0,0 STARLINK-3789,1 52283U 22041Y   22327.80421593 -.00000601  00000-0 -19677-4 0  9990,2 52283  53.2181 104.6088 0002013  44.6967 315.4187 15.08835079 32922,6917.895,95.438,541.153,538.368,0.0
52283.0,STARLINK-3789,PAYLOAD,2022-11-24 09:36:32,15.08798534,0.0002031,53.2182,101.9323,47.8696,312.2469,0.00037656,5.703e-05,0.0,0 STARLINK-3789,1 52283U 22041Y   22328.40038072  .00005703  00000-0  37656-3 0  9995,2 52283  53.2182 101.9323 0002031  47.8696 312.2469 15.08798534 34237,6918.007,95.44,541.2769999999998,538.467,0.0
52283.0,STARLINK-3789,PAYLOAD,2022-11-24 14:22:41,15.08833852,0.0002003,53.2183,101.0399,44.4187,315.6965,2.8593e-05,1.67e-06,0.0,0 STARLINK-3789,1 52283U 22041Y   22328.59909709  .00000167  00000-0  28593-4 0  9999,2 52283  53.2183 101.0399 0002003  44.4187 315.6965 15.08833852 34263,6917.899,95.438,541.15,538.379,0.0
52283.0,STARLINK-3789,PAYLOAD,2022-11-25 09:27:19,15.08842203,0.0002072,53.2183,97.4717,44.0478,316.0679,3.54e-05,2.75e-06,0.0,0 STARLINK-3789,1 52283U 22041Y   22329.39397277  .00000275  00000-0  35400-4 0  9994,2 52283  53.2183  97.4717 0002072  44.0478 316.0679 15.08842203 34380,6917.874,95.437,541.172,538.305,0.0
52283.0,STARLINK-3789,PAYLOAD,2022-11-25 12:38:06,15.08832481,0.000204,53.2189,96.8766,39.9271,320.1871,-1.3907e-06,-3.1e-06,0.0,0 STARLINK-3789,1 52283U 22041Y   22329.52645965 -.00000310  00000-0 -13907-5 0  9990,2 52283  53.2189  96.8766 0002040  39.9271 320.1871 15.08832481 33186,6917.903,95.438,541.18,538.357,0.0
52283.0,STARLINK-3789,PAYLOAD,2022-11-25 15:48:52,15.08833673,0.000192,53.2185,96.2818,43.7937,316.3207,1.9858e-05,2.8e-07,0.0,0 STARLINK-3789,1 52283U 22041Y   22329.65893895  .00000028  00000-0  19858-4 0  9995,2 52283  53.2185  96.2818 0001920  43.7937 316.3207 15.08833673 34424,6917.9,95.438,541.0930000000002,538.436,0.0
52283.0,STARLINK-3789,PAYLOAD,2022-11-26 10:53:29,15.08843726,0.0002039,53.2187,92.7137,38.2014,321.9123,0.000137,1.893e-05,0.0,0 STARLINK-3789,1 52283U 22041Y   22330.45381012  .00001893  00000-0  13700-3 0  9998,2 52283  53.2187  92.7137 0002039  38.2014 321.9123 15.08843726 33325,6917.869000000002,95.437,541.145,538.323,0.0
52283.0,STARLINK-3789,PAYLOAD,2022-11-26 17:15:01,15.08847567,0.0002086,53.2185,91.5245,42.4846,317.6308,9.3785e-05,1.205e-05,0.0,0 STARLINK-3789,1 52283U 22041Y   22330.71876919  .00001205  00000-0  93785-4 0  9991,2 52283  53.2185  91.5245 0002086  42.4846 317.6308 15.08847567 34585,6917.857,95.437,541.165,538.279,0.0
52283.0,STARLINK-3789,PAYLOAD,2022-11-27 02:47:20,15.08837834,0.0001913,53.2189,89.7398,43.2131,316.9011,7.2983e-05,8.74e-06,0.0,0 STARLINK-3789,1 52283U 22041Y   22331.11621370  .00000874  00000-0  72983-4 0  9993,2 52283  53.2189  89.7398 0001913  43.2131 316.9011 15.08837834 34647,6917.887,95.438,541.075,538.429,0.0
52283.0,STARLINK-3789,PAYLOAD,2022-11-27 10:44:17,15.08832722,0.000176,53.2199,88.2524,35.9271,324.1839,1.7175e-05,-1.5e-07,0.0,0 STARLINK-3789,1 52283U 22041Y   22331.44741904 -.00000015  00000-0  17175-4 0  9995,2 52283  53.2199  88.2524 0001760  35.9271 324.1839 15.08832722 33476,6917.903,95.438,540.985,538.55,0.0
52283.0,STARLINK-3789,PAYLOAD,2022-11-27 17:05:49,15.08832072,0.0001984,53.2184,87.0635,46.3728,313.7429,2.949e-05,1.81e-06,0.0,0 STARLINK-3789,1 52283U 22041Y   22331.71238092  .00000181  00000-0  29490-4 0  9990,2 52283  53.2184  87.0635 0001984  46.3728 313.7429 15.08832072 34738,6917.905,95.438,541.1419999999998,538.3969999999998,0.0
52283.0,STARLINK-3789,PAYLOAD,2022-11-28 02:38:08,15.08841179,0.0002009,53.2191,85.2796,43.0625,317.0524,4.8841e-05,4.89e-06,0.0,0 STARLINK-3789,1 52283U 22041Y   22332.10981567  .00000489  00000-0  48841-4 0  9998,2 52283  53.2191  85.2796 0002009  43.0625 317.0524 15.08841179 34790,6917.877,95.437,541.132,538.352,0.0
52283.0,STARLINK-3789,PAYLOAD,2022-11-28 07:24:17,15.088472400000002,0.0002149,53.219,84.3879,41.8459,318.2697,3.6891e-05,2.99e-06,0.0,0 STARLINK-3789,1 52283U 22041Y   22332.30853199  .00000299  00000-0  36891-4 0  9990,2 52283  53.2190  84.3879 0002149  41.8459 318.2697 15.08847240 33605,6917.858,95.437,541.21,538.237,0.0
52283.0,STARLINK-3789,PAYLOAD,2022-11-29 07:15:04,15.08838547,0.0001918,53.2194,79.9263,44.4637,315.6509,0.00013087,1.795e-05,0.0,0 STARLINK-3789,1 52283U 22041Y   22333.30213261  .00001795  00000-0  13087-3 0  9994,2 52283  53.2194  79.9263 0001918  44.4637 315.6509 15.08838547 34970,6917.885,95.438,541.077,538.423,0.0
52283.0,STARLINK-3789,PAYLOAD,2022-11-29 13:36:36,15.0883978,0.000198,53.2195,78.7371,44.2219,315.8931,0.00013325,1.833e-05,0.0,0 STARLINK-3789,1 52283U 22041Y   22333.56709233  .00001833  00000-0  13325-3 0  9999,2 52283  53.2195  78.7371 0001980  44.2219 315.8931 15.08839780 33791,6917.880999999999,95.438,541.116,538.376,0.0
52283.0,STARLINK-3789,PAYLOAD,2022-11-30 16:38:10,15.0883508,0.0002138,53.2202,73.6838,41.4014,318.714,1.5637e-05,-3.9e-07,0.0,0 STARLINK-3789,1 52283U 22041Y   22334.69318020 -.00000039  00000-0  15637-4 0  9991,2 52283  53.2202  73.6838 0002138  41.4014 318.7140 15.08835080 35188,6917.895,95.438,541.239,538.281,0.0
52283.0,STARLINK-3789,PAYLOAD,2022-12-01 02:10:29,15.08842499,0.0001996,53.2195,71.8995,42.5323,317.5824,3.6749e-05,2.97e-06,0.0,0 STARLINK-3789,1 52283U 22041Y   22335.09061472  .00000297  00000-0  36749-4 0  9994,2 52283  53.2195  71.8995 0001996  42.5323 317.5824 15.08842499 35244,6917.873000000001,95.437,541.119,538.357,0.0
52283.0,STARLINK-3789,PAYLOAD,2022-12-01 13:18:11,15.0884369,0.0002157,53.2177,69.8183,33.3411,326.7717,4.0261e-05,3.53e-06,0.0,0 STARLINK-3789,1 52283U 22041Y   22335.55429420  .00000353  00000-0  40261-4 0  9993,2 52283  53.2177  69.8183 0002157  33.3411 326.7717 15.08843690 34095,6917.869000000002,95.437,541.226,538.242,0.0
52283.0,STARLINK-3789,PAYLOAD,2022-12-01 18:04:21,15.08833731,0.0002161,53.2177,68.9262,35.9215,324.1922,-3.0508000000000014e-05,-7.74e-06,0.0,0 STARLINK-3789,1 52283U 22041Y   22335.75302265 -.00000774  00000-0 -30508-4 0  9994,2 52283  53.2177  68.9262 0002161  35.9215 324.1922 15.08833731 35342,6917.9,95.438,541.26,538.27,0.0
52283.0,STARLINK-3789,PAYLOAD,2022-12-02 13:08:57,15.08848305,0.000213,53.2178,65.3579,32.8669,327.2455,0.00011772,1.586e-05,0.0,0 STARLINK-3789,1 52283U 22041Y   22336.54789229  .00001586  00000-0  11772-3 0  9992,2 52283  53.2178  65.3579 0002130  32.8669 327.2455 15.08848305 35461,6917.855,95.437,541.194,538.247,0.0
52283.0,STARLINK-3789,PAYLOAD,2022-12-02 21:05:54,15.08839756,0.0002165,53.2177,63.8712,34.2756,325.8375,3.4138000000000004e-05,2.55e-06,0.0,0 STARLINK-3789,1 52283U 22041Y   22336.87909984  .00000255  00000-0  34138-4 0  9994,2 52283  53.2177  63.8712 0002165  34.2756 325.8375 15.08839756 35514,6917.880999999999,95.438,541.244,538.248,0.0
52283.0,STARLINK-3789,PAYLOAD,2022-12-03 09:48:59,15.08833036,0.0002098,53.2177,61.492,36.4496,323.6638,4.3508e-05,4.04e-06,0.0,0 STARLINK-3789,1 52283U 22041Y   22337.40902487  .00000404  00000-0  43508-4 0  9992,2 52283  53.2177  61.4920 0002098  36.4496 323.6638 15.08833036 35590,6917.901999999999,95.438,541.2180000000002,538.315,0.0
52283.0,STARLINK-3789,PAYLOAD,2022-12-03 12:59:46,15.08834569,0.000223,53.2177,60.8975,42.1976,317.9188,2.1938e-05,6.1e-07,0.0,0 STARLINK-3789,1 52283U 22041Y   22337.54150503  .00000061  00000-0  21938-4 0  9993,2 52283  53.2177  60.8975 0002230  42.1976 317.9188 15.08834569 34393,6917.897,95.438,541.305,538.219,0.0
52283.0,STARLINK-3789,PAYLOAD,2022-12-03 16:10:32,15.08835995,0.0002195,53.2176,60.3029,34.5127,325.6008,4.9781e-05,5.04e-06,0.0,0 STARLINK-3789,1 52283U 22041Y   22337.67398404  .00000504  00000-0  49781-4 0  9999,2 52283  53.2176  60.3029 0002195  34.5127 325.6008 15.08835995 34414,6917.893,95.438,541.276,538.239,0.0
52283.0,STARLINK-3789,PAYLOAD,2022-12-04 14:25:56,15.0883783,0.0002238,53.2171,56.1395,34.0847,326.0289,1.9635e-05,2.4e-07,0.0,0 STARLINK-3789,1 52283U 22041Y   22338.60134327  .00000024  00000-0  19635-4 0  9997,2 52283  53.2171  56.1395 0002238  34.0847 326.0289 15.08837830 34551,6917.887,95.438,541.3,538.2040000000002,0.0
52283.0,STARLINK-3789,PAYLOAD,2022-12-04 17:36:42,15.08841598,0.0002251,53.2171,55.5448,33.7634,326.3501,6.402899999999999e-05,7.31e-06,0.0,0 STARLINK-3789,1 52283U 22041Y   22338.73382166  .00000731  00000-0  64029-4 0  9999,2 52283  53.2171  55.5448 0002251  33.7634 326.3501 15.08841598 35791,6917.876,95.437,541.298,538.183,0.0
52283.0,STARLINK-3789,PAYLOAD,2022-12-04 20:47:28,15.08847845,0.000225,53.2171,54.9501,33.9175,326.1961,0.00015225,2.136e-05,0.0,0 STARLINK-3789,1 52283U 22041Y   22338.86629938  .00002136  00000-0  15225-3 0  9998,2 52283  53.2171  54.9501 0002250  33.9175 326.1961 15.08847845 34591,6917.856,95.437,541.278,538.165,0.0
52283.0,STARLINK-3789,PAYLOAD,2022-12-05 11:05:56,15.08843009,0.0002257,53.2172,52.2737,32.9648,327.1485,0.0001386999999999,1.92e-05,0.0,0 STARLINK-3789,1 52283U 22041Y   22339.46246200  .00001920  00000-0  13870-3 0  9996,2 52283  53.2172  52.2737 0002257  32.9648 327.1485 15.08843009 34685,6917.871,95.437,541.298,538.175,0.0
52283.0,STARLINK-3789,PAYLOAD,2022-12-05 17:27:29,15.08847899,0.0002237,53.2172,51.0843,33.5431,326.5703,0.00027454,4.085e-05,0.0,0 STARLINK-3789,1 52283U 22041Y   22339.72741963  .00004085  00000-0  27454-3 0  9999,2 52283  53.2172  51.0843 0002237  33.5431 326.5703 15.08847899 34727,6917.856,95.437,541.269,538.174,0.0
